{
  "type": "FeatureCollection",
  "features": [
    {
      "type": "Feature",
      "properties": {
        "norad_id": 30533,
        "name": "FENGYUN 1C DEB",
        "group": "fengyun-1c-debris",
        "lat": -64.92636656325203,
        "lon": -90.14120593157928,
        "alt_km": 709.8744803536883,
        "timestamp": "2025-12-06T18:50:10.445457+00:00",
        "meta_object_name": "FENGYUN 1C DEB",
        "meta_object_id": "1999-025AJX",
        "meta_epoch": "2025-12-05T20:48:48.743712",
        "meta_mean_motion": 14.53461308,
        "meta_eccentricity": 0.00835558,
        "meta_inclination": 98.835,
        "meta_ra_of_asc_node": 108.3081,
        "meta_arg_of_pericenter": 169.8906,
        "meta_mean_anomaly": 316.8769,
        "meta_ephemeris_type": 0,
        "meta_classification_type": "U",
        "meta_norad_cat_id": 30533,
        "meta_element_set_no": 999,
        "meta_rev_at_epoch": 97721,
        "meta_bstar": 0.0070516742,
        "meta_mean_motion_dot": 0.00030852,
        "meta_mean_motion_ddot": 0,
        "tle_line1": "1 30533U 99025AJX 25339.86723083  .00030852  00000+0  70517-2 0  9997",
        "tle_line2": "2 30533  98.8350 108.3081 0083555 169.8906 316.8769 14.53461308977216"
      },
      "geometry": {
        "type": "Point",
        "coordinates": [
          -90.14120593157928,
          -64.92636656325203
        ]
      }
    },
    {
      "type": "Feature",
      "properties": {
        "norad_id": 30539,
        "name": "FENGYUN 1C DEB",
        "group": "fengyun-1c-debris",
        "lat": -64.27566650505402,
        "lon": -20.20192334606717,
        "alt_km": 633.3566314896489,
        "timestamp": "2025-12-06T18:50:10.445485+00:00",
        "meta_object_name": "FENGYUN 1C DEB",
        "meta_object_id": "1999-025AKD",
        "meta_epoch": "2025-12-05T21:40:54.265440",
        "meta_mean_motion": 14.55329268,
        "meta_eccentricity": 0.01158348,
        "meta_inclination": 98.8786,
        "meta_ra_of_asc_node": 319.9295,
        "meta_arg_of_pericenter": 296.714,
        "meta_mean_anomaly": 62.2236,
        "meta_ephemeris_type": 0,
        "meta_classification_type": "U",
        "meta_norad_cat_id": 30539,
        "meta_element_set_no": 999,
        "meta_rev_at_epoch": 99266,
        "meta_bstar": 0.0010158123,
        "meta_mean_motion_dot": 4.765e-05,
        "meta_mean_motion_ddot": 0,
        "tle_line1": "1 30539U 99025AKD 25339.90340585  .00004765  00000+0  10158-2 0  9999",
        "tle_line2": "2 30539  98.8786 319.9295 0115834 296.7140  62.2236 14.55329268992665"
      },
      "geometry": {
        "type": "Point",
        "coordinates": [
          -20.20192334606717,
          -64.27566650505402
        ]
      }
    },
    {
      "type": "Feature",
      "properties": {
        "norad_id": 30540,
        "name": "FENGYUN 1C DEB",
        "group": "fengyun-1c-debris",
        "lat": -78.06819498539168,
        "lon": 136.70071004929824,
        "alt_km": 827.3055914660599,
        "timestamp": "2025-12-06T18:50:10.445498+00:00",
        "meta_object_name": "FENGYUN 1C DEB",
        "meta_object_id": "1999-025AKE",
        "meta_epoch": "2025-12-06T05:54:13.573152",
        "meta_mean_motion": 14.32173432,
        "meta_eccentricity": 0.0052194,
        "meta_inclination": 98.8793,
        "meta_ra_of_asc_node": 88.4361,
        "meta_arg_of_pericenter": 81.6737,
        "meta_mean_anomaly": 299.8603,
        "meta_ephemeris_type": 0,
        "meta_classification_type": "U",
        "meta_norad_cat_id": 30540,
        "meta_element_set_no": 999,
        "meta_rev_at_epoch": 97193,
        "meta_bstar": 0.0037320575,
        "meta_mean_motion_dot": 0.00010169,
        "meta_mean_motion_ddot": 0,
        "tle_line1": "1 30540U 99025AKE 25340.24599043  .00010169  00000+0  37321-2 0  9991",
        "tle_line2": "2 30540  98.8793  88.4361 0052194  81.6737 299.8603 14.32173432971937"
      },
      "geometry": {
        "type": "Point",
        "coordinates": [
          136.70071004929824,
          -78.06819498539168
        ]
      }
    },
    {
      "type": "Feature",
      "properties": {
        "norad_id": 30541,
        "name": "FENGYUN 1C DEB",
        "group": "fengyun-1c-debris",
        "lat": 31.266516870651785,
        "lon": -147.26569125072686,
        "alt_km": 804.0296847722138,
        "timestamp": "2025-12-06T18:50:10.445539+00:00",
        "meta_object_name": "FENGYUN 1C DEB",
        "meta_object_id": "1999-025AKF",
        "meta_epoch": "2025-12-05T13:27:20.380320",
        "meta_mean_motion": 14.22997865,
        "meta_eccentricity": 0.00186719,
        "meta_inclination": 98.6952,
        "meta_ra_of_asc_node": 26.1939,
        "meta_arg_of_pericenter": 105.9576,
        "meta_mean_anomaly": 254.3661,
        "meta_ephemeris_type": 0,
        "meta_classification_type": "U",
        "meta_norad_cat_id": 30541,
        "meta_element_set_no": 999,
        "meta_rev_at_epoch": 97225,
        "meta_bstar": 0.0021981633,
        "meta_mean_motion_dot": 4.918e-05,
        "meta_mean_motion_ddot": 0,
        "tle_line1": "1 30541U 99025AKF 25339.56065255  .00004918  00000+0  21982-2 0  9999",
        "tle_line2": "2 30541  98.6952  26.1939 0018671 105.9576 254.3661 14.22997865972255"
      },
      "geometry": {
        "type": "Point",
        "coordinates": [
          -147.26569125072686,
          31.266516870651785
        ]
      }
    },
    {
      "type": "Feature",
      "properties": {
        "norad_id": 30542,
        "name": "FENGYUN 1C DEB",
        "group": "fengyun-1c-debris",
        "lat": -1.1170164184113414,
        "lon": 9.873495300461352,
        "alt_km": 852.8505221848372,
        "timestamp": "2025-12-06T18:50:10.445551+00:00",
        "meta_object_name": "FENGYUN 1C DEB",
        "meta_object_id": "1999-025AKG",
        "meta_epoch": "2025-12-06T00:21:06.403680",
        "meta_mean_motion": 14.06968263,
        "meta_eccentricity": 0.00277699,
        "meta_inclination": 98.7878,
        "meta_ra_of_asc_node": 8.9523,
        "meta_arg_of_pericenter": 353.4556,
        "meta_mean_anomaly": 66.5975,
        "meta_ephemeris_type": 0,
        "meta_classification_type": "U",
        "meta_norad_cat_id": 30542,
        "meta_element_set_no": 999,
        "meta_rev_at_epoch": 96824,
        "meta_bstar": 0.00033500574,
        "meta_mean_motion_dot": 5.18e-06,
        "meta_mean_motion_ddot": 0,
        "tle_line1": "1 30542U 99025AKG 25340.01465745  .00000518  00000+0  33501-3 0  9993",
        "tle_line2": "2 30542  98.7878   8.9523 0027769 353.4556  66.5975 14.06968263968244"
      },
      "geometry": {
        "type": "Point",
        "coordinates": [
          9.873495300461352,
          -1.1170164184113414
        ]
      }
    },
    {
      "type": "Feature",
      "properties": {
        "norad_id": 30543,
        "name": "FENGYUN 1C DEB",
        "group": "fengyun-1c-debris",
        "lat": 34.678730804083266,
        "lon": 176.6970612597339,
        "alt_km": 882.493823887884,
        "timestamp": "2025-12-06T18:50:10.445561+00:00",
        "meta_object_name": "FENGYUN 1C DEB",
        "meta_object_id": "1999-025AKH",
        "meta_epoch": "2025-12-06T06:28:38.280864",
        "meta_mean_motion": 14.03730438,
        "meta_eccentricity": 0.00726769,
        "meta_inclination": 98.8327,
        "meta_ra_of_asc_node": 350.0209,
        "meta_arg_of_pericenter": 51.4953,
        "meta_mean_anomaly": 11.5742,
        "meta_ephemeris_type": 0,
        "meta_classification_type": "U",
        "meta_norad_cat_id": 30543,
        "meta_element_set_no": 999,
        "meta_rev_at_epoch": 96414,
        "meta_bstar": 0.00051863805,
        "meta_mean_motion_dot": 7.93e-06,
        "meta_mean_motion_ddot": 0,
        "tle_line1": "1 30543U 99025AKH 25340.26988751  .00000793  00000+0  51864-3 0  9995",
        "tle_line2": "2 30543  98.8327 350.0209 0072676  51.4953  11.5742 14.03730438964145"
      },
      "geometry": {
        "type": "Point",
        "coordinates": [
          176.6970612597339,
          34.678730804083266
        ]
      }
    },
    {
      "type": "Feature",
      "properties": {
        "norad_id": 30545,
        "name": "FENGYUN 1C DEB",
        "group": "fengyun-1c-debris",
        "lat": 66.15632064461178,
        "lon": 34.81341919972869,
        "alt_km": 1138.5996038267085,
        "timestamp": "2025-12-06T18:50:10.445571+00:00",
        "meta_object_name": "FENGYUN 1C DEB",
        "meta_object_id": "1999-025AKK",
        "meta_epoch": "2025-12-05T13:13:17.988960",
        "meta_mean_motion": 13.20773946,
        "meta_eccentricity": 0.04728713,
        "meta_inclination": 99.0008,
        "meta_ra_of_asc_node": 192.7345,
        "meta_arg_of_pericenter": 28.3001,
        "meta_mean_anomaly": 334.2963,
        "meta_ephemeris_type": 0,
        "meta_classification_type": "U",
        "meta_norad_cat_id": 30545,
        "meta_element_set_no": 999,
        "meta_rev_at_epoch": 90835,
        "meta_bstar": 0.00084147074,
        "meta_mean_motion_dot": 5.81e-06,
        "meta_mean_motion_ddot": 0,
        "tle_line1": "1 30545U 99025AKK 25339.55090265  .00000581  00000+0  84147-3 0  9996",
        "tle_line2": "2 30545  99.0008 192.7345 0472871  28.3001 334.2963 13.20773946908356"
      },
      "geometry": {
        "type": "Point",
        "coordinates": [
          34.81341919972869,
          66.15632064461178
        ]
      }
    }
  ]
}